[{"OBJECT_NAME":"STARLINK-5598","OBJECT_ID":"2023-014AG","EPOCH":"2026-03-09T10:19:02.756928","MEAN_MOTION":14.98322418,"ECCENTRICITY":0.00036198,"INCLINATION":69.9992,"RA_OF_ASC_NODE":85.1003,"ARG_OF_PERICENTER":272.2762,"MEAN_ANOMALY":87.7982,"EPHEMERIS_TYPE":0,"CLASSIFICATION_TYPE":"U","NORAD_CAT_ID":55421,"ELEMENT_SET_NO":999,"REV_AT_EPOCH":17152,"BSTAR":0.00015150647,"MEAN_MOTION_DOT":1.715e-5,"MEAN_MOTION_DDOT":0},{"OBJECT_NAME":"RAPIDEYE 5","OBJECT_ID":"2008-040B","EPOCH":"2026-03-09T15:17:22.403904","MEAN_MOTION":15.02179038,"ECCENTRICITY":0.0014834,"INCLINATION":97.3944,"RA_OF_ASC_NODE":91.3825,"ARG_OF_PERICENTER":86.9831,"MEAN_ANOMALY":273.3091,"EPHEMERIS_TYPE":0,"CLASSIFICATION_TYPE":"U","NORAD_CAT_ID":33313,"ELEMENT_SET_NO":999,"REV_AT_EPOCH":95055,"BSTAR":0.00014028,"MEAN_MOTION_DOT":1.794e-5,"MEAN_MOTION_DDOT":0}]
